{
  "norad_id": 68719,
  "name": "STARLINK-36686",
  "history": [
    {
      "epoch": "2026-04-23T13:52:23.323008Z",
      "apogee_km": 312.6065449657517,
      "perigee_km": 310.4011041787062,
      "latitude_deg": -1.041256051948867e-06,
      "longitude_deg": 136.09914875108393,
      "height_km": 311.3600440549291,
      "semi_major_axis_km": 6689.640824572229,
      "eccentricity": 0.00016484,
      "inclination_deg": 53.1593,
      "raan_deg": 195.8196,
      "arg_perigee_deg": 15.0647,
      "mean_anomaly_deg": 345.0427,
      "mean_motion_rev_day": 15.86713662
    }
  ]
}