STARLINK-36686          
1 68719U 26081W   26113.57804772 -.00772333  00000+0 -32283-2 0  9997
2 68719  53.1593 195.8196 0001648  15.0647 345.0427 15.86713662  1472
